NORAD_CAT_ID,OBJECT_NAME,OBJECT_TYPE,EPOCH,MEAN_MOTION,ECCENTRICITY,INCLINATION,RA_OF_ASC_NODE,ARG_OF_PERICENTER,MEAN_ANOMALY,BSTAR,MEAN_MOTION_DOT,MEAN_MOTION_DDOT,TLE_LINE0,TLE_LINE1,TLE_LINE2,SEMIMAJOR_AXIS,PERIOD,APOGEE,PERIGEE,DECAYED
50173.0,STARLINK-3289,PAYLOAD,2023-12-17 02:27:46,15.08839477,0.0001898,53.2184,291.5218,67.6101,292.5092,3.3285e-05,2.42e-06,0.0,0 STARLINK-3289,1 50173U 21125T   23351.10262192  .00000242  00000-0  33285-4 0  9997,2 50173  53.2184 291.5218 0001898  67.6101 292.5092 15.08839477113923,6917.882,95.438,541.06,538.434,0.0
50173.0,STARLINK-3289,PAYLOAD,2023-12-18 02:18:33,15.08849795,0.000186,53.2181,287.0601,67.437,292.6819,0.00081671,0.00012737,0.0,0 STARLINK-3289,1 50173U 21125T   23352.09621657  .00012737  00000-0  81671-3 0  9994,2 50173  53.2181 287.0601 0001860  67.4370 292.6819 15.08849795110986,6917.85,95.437,541.002,538.429,0.0
50173.0,STARLINK-3289,PAYLOAD,2023-12-19 02:09:20,15.08836124,0.0001592,53.2164,282.6034,130.779,229.334,-0.00011147,-2.061e-05,0.0,0 STARLINK-3289,1 50173U 21125T   23353.08981659 -.00002061  00000-0 -11147-3 0  9997,2 50173  53.2164 282.6034 0001592 130.7790 229.3340 15.08836124111136,6917.892,95.438,540.859,538.656,0.0
50173.0,STARLINK-3289,PAYLOAD,2023-12-20 02:00:07,15.08845561,0.0001231,53.2165,278.1411,106.3232,253.7895,0.00013421,1.849e-05,0.0,0 STARLINK-3289,1 50173U 21125T   23354.08341677  .00001849  00000-0  13421-3 0  9996,2 50173  53.2165 278.1411 0001231 106.3232 253.7895 15.08845561111283,6917.863,95.437,540.58,538.877,0.0
50173.0,STARLINK-3289,PAYLOAD,2023-12-20 22:40:08,15.08843932,0.0001392,53.2168,274.2754,113.6819,246.4319,0.00026103,3.869e-05,0.0,0 STARLINK-3289,1 50173U 21125T   23354.94453932  .00003869  00000-0  26103-3 0  9994,2 50173  53.2168 274.2754 0001392 113.6819 246.4319 15.08843932114501,6917.868,95.437,540.696,538.77,0.0
50173.0,STARLINK-3289,PAYLOAD,2023-12-21 00:15:31,15.08845635,0.0001324,53.2166,273.9794,107.6464,252.4672,0.00026547,3.94e-05,0.0,0 STARLINK-3289,1 50173U 21125T   23355.01077878  .00003940  00000-0  26547-3 0  9996,2 50173  53.2166 273.9794 0001324 107.6464 252.4672 15.08845635111422,6917.863,95.437,540.644,538.812,0.0
50173.0,STARLINK-3289,PAYLOAD,2023-12-21 22:30:55,15.08834557,0.0001442,53.2169,269.8166,100.045,260.0705,-1.9212e-05,-5.94e-06,0.0,0 STARLINK-3289,1 50173U 21125T   23355.93814596 -.00000594  00000-0 -19212-4 0  9999,2 50173  53.2169 269.8166 0001442 100.0450 260.0705 15.08834557114656,6917.897,95.438,540.76,538.764,0.0
50173.0,STARLINK-3289,PAYLOAD,2023-12-22 00:06:18,15.08835682,0.0001448,53.2167,269.5182,99.1675,260.9481,3.1262e-06,-2.38e-06,0.0,0 STARLINK-3289,1 50173U 21125T   23356.00438565 -.00000238  00000-0  31262-5 0  9990,2 50173  53.2167 269.5182 0001448  99.1675 260.9481 15.08835682111570,6917.894,95.438,540.76,538.757,0.0
50173.0,STARLINK-3289,PAYLOAD,2023-12-22 22:21:42,15.08841108,0.0001322,53.2155,265.3521,85.8615,274.2528,0.00015485,2.177e-05,0.0,0 STARLINK-3289,1 50173U 21125T   23356.93174630  .00002177  00000-0  15485-3 0  9992,2 50173  53.2155 265.3521 0001322  85.8615 274.2528 15.08841108114804,6917.877,95.437,540.657,538.827,0.0
50173.0,STARLINK-3289,PAYLOAD,2023-12-23 03:07:52,15.08848619,0.0001474,53.2159,264.4617,88.3464,271.7697,0.00051232,7.877e-05,0.0,0 STARLINK-3289,1 50173U 21125T   23357.13046570  .00007877  00000-0  51232-3 0  9998,2 50173  53.2159 264.4617 0001474  88.3464 271.7697 15.08848619111745,6917.854,95.437,540.739,538.699,0.0
50173.0,STARLINK-3289,PAYLOAD,2023-12-23 22:12:29,15.08842915,0.000156,53.2158,260.8916,89.9223,270.1948,0.00018327,2.63e-05,0.0,0 STARLINK-3289,1 50173U 21125T   23357.92534710  .00002630  00000-0  18327-3 0  9993,2 50173  53.2158 260.8916 0001560  89.9223 270.1948 15.08842915114953,6917.871,95.437,540.816,538.657,0.0
50173.0,STARLINK-3289,PAYLOAD,2023-12-24 02:58:39,15.08848059,0.0001539,53.2164,259.9985,89.5257,270.5911,0.00025845,3.829e-05,0.0,0 STARLINK-3289,1 50173U 21125T   23358.12406502  .00003829  00000-0  25845-3 0  9997,2 50173  53.2164 259.9985 0001539  89.5257 270.5911 15.08848059111893,6917.856,95.437,540.785,538.656,0.0
50173.0,STARLINK-3289,PAYLOAD,2023-12-24 22:03:16,15.08843569,0.0001399,53.2152,256.4338,118.9351,241.1781,2.8914e-05,1.72e-06,0.0,0 STARLINK-3289,1 50173U 21125T   23358.91894411  .00000172  00000-0  28914-4 0  9993,2 50173  53.2152 256.4338 0001399 118.9351 241.1781 15.08843569115108,6917.869,95.437,540.702,538.767,0.0
50173.0,STARLINK-3289,PAYLOAD,2023-12-25 02:49:25,15.08855769,0.0001433,53.216,255.5392,105.7263,254.3887,0.00018461,2.653e-05,0.0,0 STARLINK-3289,1 50173U 21125T   23359.11765804  .00002653  00000-0  18461-3 0  9990,2 50173  53.2160 255.5392 0001433 105.7263 254.3887 15.08855769115133,6917.832,95.437,540.689,538.706,0.0
50173.0,STARLINK-3289,PAYLOAD,2023-12-25 20:18:40,15.08841172,0.000201,53.2172,252.2624,107.9475,252.1736,4.3821e-05,4.09e-06,0.0,0 STARLINK-3289,1 50173U 21125T   23359.84630645  .00000409  00000-0  43821-4 0  9990,2 50173  53.2172 252.2624 0002010 107.9475 252.1736 15.08841172112150,6917.877,95.437,541.132,538.351,0.0
50173.0,STARLINK-3289,PAYLOAD,2023-12-25 21:54:04,15.0883953,0.0001407,53.2161,251.9729,91.0174,269.0979,2.8858e-05,1.71e-06,0.0,0 STARLINK-3289,1 50173U 21125T   23359.91254921  .00000171  00000-0  28858-4 0  9996,2 50173  53.2161 251.9729 0001407  91.0174 269.0979 15.08839530115253,6917.882,95.438,540.72,538.773,0.0
50173.0,STARLINK-3289,PAYLOAD,2023-12-26 02:40:13,15.08842396,0.0001512,53.2162,251.0793,92.5724,267.5441,7.2427e-05,8.65e-06,0.0,0 STARLINK-3289,1 50173U 21125T   23360.11126766  .00000865  00000-0  72427-4 0  9996,2 50173  53.2162 251.0793 0001512  92.5724 267.5441 15.08842396115284,6917.873,95.437,540.784,538.692,0.0
50173.0,STARLINK-3289,PAYLOAD,2023-12-26 21:44:51,15.08844707,0.0001522,53.2155,247.5122,97.6542,262.4624,6.227e-05,7.03e-06,0.0,0 STARLINK-3289,1 50173U 21125T   23360.90614737  .00000703  00000-0  62270-4 0  9999,2 50173  53.2155 247.5122 0001522  97.6542 262.4624 15.08844707115406,6917.866,95.437,540.784,538.678,0.0
50173.0,STARLINK-3289,PAYLOAD,2023-12-27 02:31:00,15.08847975,0.0001506,53.2155,246.6194,105.1076,255.0083,0.00016792,2.386e-05,0.0,0 STARLINK-3289,1 50173U 21125T   23361.10486507  .00002386  00000-0  16792-3 0  9990,2 50173  53.2155 246.6194 0001506 105.1076 255.0083 15.08847975112341,6917.856,95.437,540.763,538.679,0.0
50173.0,STARLINK-3289,PAYLOAD,2023-12-27 20:00:15,15.08839537,0.0001634,53.2153,243.3475,108.2882,251.8288,4.9185e-05,4.95e-06,0.0,0 STARLINK-3289,1 50173U 21125T   23361.83350983  .00000495  00000-0  49185-4 0  9990,2 50173  53.2153 243.3475 0001634 108.2882 251.8288 15.08839537112454,6917.882,95.438,540.877,538.616,0.0
50173.0,STARLINK-3289,PAYLOAD,2023-12-27 21:35:38,15.08842256,0.0001517,53.2154,243.0504,108.6158,251.4999,9.0446e-05,1.152e-05,0.0,0 STARLINK-3289,1 50173U 21125T   23361.89974931  .00001152  00000-0  90446-4 0  9998,2 50173  53.2154 243.0504 0001517 108.6158 251.4999 15.08842256115556,6917.873,95.437,540.788,538.689,0.0
50173.0,STARLINK-3289,PAYLOAD,2023-12-28 02:21:47,15.08843807,0.0001497,53.2151,242.1599,97.7915,262.3247,0.00011674,1.571e-05,0.0,0 STARLINK-3289,1 50173U 21125T   23362.09846756  .00001571  00000-0  11674-3 0  9994,2 50173  53.2151 242.1599 0001497  97.7915 262.3247 15.08843807115586,6917.869,95.437,540.769,538.698,0.0
50173.0,STARLINK-3289,PAYLOAD,2023-12-28 19:51:01,15.08864389,0.0001536,53.2144,238.8875,116.904,243.2109,-0.00072644,-0.00011838,0.0,0 STARLINK-3289,1 50173U 21125T   23362.82709772 -.00011838  00000-0 -72644-3 0  9994,2 50173  53.2144 238.8875 0001536 116.9040 243.2109 15.08864389112607,6917.806,95.436,540.733,538.608,0.0
50173.0,STARLINK-3289,PAYLOAD,2023-12-28 21:26:25,15.08838152,0.000156,53.2148,238.5907,107.0067,253.1096,-4.6742e-05,-1.032e-05,0.0,0 STARLINK-3289,1 50173U 21125T   23362.89335021 -.00001032  00000-0 -46742-4 0  9999,2 50173  53.2148 238.5907 0001560 107.0067 253.1096 15.08838152115709,6917.886,95.438,540.83,538.672,0.0
50173.0,STARLINK-3289,PAYLOAD,2023-12-28 23:01:48,15.0883776,0.0001508,53.2149,238.2935,102.5079,257.6082,-5.003e-05,-1.084e-05,0.0,0 STARLINK-3289,1 50173U 21125T   23362.95959067 -.00001084  00000-0 -50030-4 0  9990,2 50173  53.2149 238.2935 0001508 102.5079 257.6082 15.08837760112629,6917.887,95.438,540.795,538.709,0.0
50173.0,STARLINK-3289,PAYLOAD,2023-12-29 19:41:47,15.08865127,0.0001293,53.2159,234.4273,115.0286,245.084,0.00029259,4.375e-05,0.0,0 STARLINK-3289,1 50173U 21125T   23363.82069054  .00004375  00000-0  29259-3 0  9997,2 50173  53.2159 234.4273 0001293 115.0286 245.0840 15.08865127112758,6917.804,95.436,540.563,538.774,0.0
50173.0,STARLINK-3289,PAYLOAD,2023-12-29 21:17:10,15.08871911,0.0001308,53.216,234.1299,101.0249,259.089,0.00034387,5.194e-05,0.0,0 STARLINK-3289,1 50173U 21125T   23363.88692476  .00005194  00000-0  34387-3 0  9991,2 50173  53.2160 234.1299 0001308 101.0249 259.0890 15.08871911115858,6917.783,95.436,540.553,538.743,0.0
50173.0,STARLINK-3289,PAYLOAD,2023-12-30 14:46:27,15.08838038,0.0001259,53.2158,230.8606,83.1028,277.0108,0.0001113,1.484e-05,0.0,0 STARLINK-3289,1 50173U 21125T   23364.61559112  .00001484  00000-0  11130-3 0  9991,2 50173  53.2158 230.8606 0001259  83.1028 277.0108 15.08838038115967,6917.886,95.438,540.622,538.88,0.0
50173.0,STARLINK-3289,PAYLOAD,2023-12-30 19:32:36,15.08836371,0.0001715,53.2161,229.9619,107.3569,252.761,4.6605e-05,4.54e-06,0.0,0 STARLINK-3289,1 50173U 21125T   23364.81431362  .00000454  00000-0  46605-4 0  9991,2 50173  53.2161 229.9619 0001715 107.3569 252.7610 15.08836371112907,6917.891,95.438,540.943,538.57,0.0
50173.0,STARLINK-3289,PAYLOAD,2023-12-30 22:43:23,15.08827641,0.0001554,53.2167,229.3708,93.8557,266.2613,-2.2463e-05,-6.45e-06,0.0,0 STARLINK-3289,1 50173U 21125T   23364.94680140 -.00000645  00000-0 -22463-4 0  9995,2 50173  53.2167 229.3708 0001554  93.8557 266.2613 15.08827641116012,6917.918,95.438,540.858,538.708,0.0
